CCSDS_OMM_VERS = 2.0
CREATION_DATE  = 
ORIGINATOR     = 

OBJECT_NAME    = SL-3 R/B
OBJECT_ID      = 1982-079B
CENTER_NAME    = EARTH
REF_FRAME      = TEME
TIME_SYSTEM    = UTC
MEAN_ELEMENT_THEORY = SGP/SGP4

EPOCH          = 2025-12-18T14:11:47.961312
MEAN_MOTION    = 15.23653159
ECCENTRICITY   = .00271197
INCLINATION    = 81.1474
RA_OF_ASC_NODE = 288.7622
ARG_OF_PERICENTER = 80.2793
MEAN_ANOMALY   = 280.1501

EPHEMERIS_TYPE = 0
CLASSIFICATION_TYPE = U
NORAD_CAT_ID   = 13403
ELEMENT_SET_NO = 999
REV_AT_EPOCH   = 36534
BSTAR          = .20051631E-3
MEAN_MOTION_DOT = .4882E-4
MEAN_MOTION_DDOT = 0

CCSDS_OMM_VERS = 2.0
CREATION_DATE  = 
ORIGINATOR     = 

OBJECT_NAME    = SL-14 R/B
OBJECT_ID      = 1982-092B
CENTER_NAME    = EARTH
REF_FRAME      = TEME
TIME_SYSTEM    = UTC
MEAN_ELEMENT_THEORY = SGP/SGP4

EPOCH          = 2025-12-18T14:19:09.867072
MEAN_MOTION    = 14.86561118
ECCENTRICITY   = .00195888
INCLINATION    = 82.5677
RA_OF_ASC_NODE = 217.2345
ARG_OF_PERICENTER = 206.5965
MEAN_ANOMALY   = 175.6082

EPHEMERIS_TYPE = 0
CLASSIFICATION_TYPE = U
NORAD_CAT_ID   = 13553
ELEMENT_SET_NO = 999
REV_AT_EPOCH   = 31688
BSTAR          = .39487547E-4
MEAN_MOTION_DOT = .375E-5
MEAN_MOTION_DDOT = 0

CCSDS_OMM_VERS = 2.0
CREATION_DATE  = 
ORIGINATOR     = 

OBJECT_NAME    = SL-3 R/B
OBJECT_ID      = 1983-010B
CENTER_NAME    = EARTH
REF_FRAME      = TEME
TIME_SYSTEM    = UTC
MEAN_ELEMENT_THEORY = SGP/SGP4

EPOCH          = 2025-12-18T09:53:13.269696
MEAN_MOTION    = 15.43608862
ECCENTRICITY   = .00168586
INCLINATION    = 81.1049
RA_OF_ASC_NODE = 101.6949
ARG_OF_PERICENTER = 331.1195
MEAN_ANOMALY   = 28.9113

EPHEMERIS_TYPE = 0
CLASSIFICATION_TYPE = U
NORAD_CAT_ID   = 13819
ELEMENT_SET_NO = 999
REV_AT_EPOCH   = 34539
BSTAR          = .29147051E-3
MEAN_MOTION_DOT = .13212E-3
MEAN_MOTION_DDOT = 0

CCSDS_OMM_VERS = 2.0
CREATION_DATE  = 
ORIGINATOR     = 

OBJECT_NAME    = SL-3 R/B
OBJECT_ID      = 1983-075B
CENTER_NAME    = EARTH
REF_FRAME      = TEME
TIME_SYSTEM    = UTC
MEAN_ELEMENT_THEORY = SGP/SGP4

EPOCH          = 2025-12-18T14:01:46.465248
MEAN_MOTION    = 15.36249795
ECCENTRICITY   = .00233781
INCLINATION    = 97.6097
RA_OF_ASC_NODE = 349.2648
ARG_OF_PERICENTER = 154.9698
MEAN_ANOMALY   = 205.2685

EPHEMERIS_TYPE = 0
CLASSIFICATION_TYPE = U
NORAD_CAT_ID   = 14208
ELEMENT_SET_NO = 999
REV_AT_EPOCH   = 31769
BSTAR          = .23239004E-3
MEAN_MOTION_DOT = .8198E-4
MEAN_MOTION_DDOT = 0

CCSDS_OMM_VERS = 2.0
CREATION_DATE  = 
ORIGINATOR     = 

OBJECT_NAME    = COSMOS 1536
OBJECT_ID      = 1984-013A
CENTER_NAME    = EARTH
REF_FRAME      = TEME
TIME_SYSTEM    = UTC
MEAN_ELEMENT_THEORY = SGP/SGP4

EPOCH          = 2025-12-18T14:09:19.716192
MEAN_MOTION    = 15.22582072
ECCENTRICITY   = .00139185
INCLINATION    = 82.5442
RA_OF_ASC_NODE = 188.3621
ARG_OF_PERICENTER = 203.6201
MEAN_ANOMALY   = 156.4399

EPHEMERIS_TYPE = 0
CLASSIFICATION_TYPE = U
NORAD_CAT_ID   = 14699
ELEMENT_SET_NO = 999
REV_AT_EPOCH   = 26027
BSTAR          = .20635962E-3
MEAN_MOTION_DOT = .4836E-4
MEAN_MOTION_DDOT = 0

CCSDS_OMM_VERS = 2.0
CREATION_DATE  = 
ORIGINATOR     = 

OBJECT_NAME    = SL-14 R/B
OBJECT_ID      = 1984-027B
CENTER_NAME    = EARTH
REF_FRAME      = TEME
TIME_SYSTEM    = UTC
MEAN_ELEMENT_THEORY = SGP/SGP4

EPOCH          = 2025-12-18T09:56:33.586368
MEAN_MOTION    = 14.85880487
ECCENTRICITY   = .00165113
INCLINATION    = 82.5415
RA_OF_ASC_NODE = 321.2342
ARG_OF_PERICENTER = 240.2503
MEAN_ANOMALY   = 119.7071

EPHEMERIS_TYPE = 0
CLASSIFICATION_TYPE = U
NORAD_CAT_ID   = 14820
ELEMENT_SET_NO = 999
REV_AT_EPOCH   = 23556
BSTAR          = .470828E-4
MEAN_MOTION_DOT = .435E-5
MEAN_MOTION_DDOT = 0

CCSDS_OMM_VERS = 2.0
CREATION_DATE  = 
ORIGINATOR     = 

OBJECT_NAME    = SL-8 R/B
OBJECT_ID      = 1985-006B
CENTER_NAME    = EARTH
REF_FRAME      = TEME
TIME_SYSTEM    = UTC
MEAN_ELEMENT_THEORY = SGP/SGP4

EPOCH          = 2025-12-18T14:31:47.754912
MEAN_MOTION    = 14.37724364
ECCENTRICITY   = .00189279
INCLINATION    = 74.0465
RA_OF_ASC_NODE = 50.3433
ARG_OF_PERICENTER = 341.2695
MEAN_ANOMALY   = 127.1107

EPHEMERIS_TYPE = 0
CLASSIFICATION_TYPE = U
NORAD_CAT_ID   = 15483
ELEMENT_SET_NO = 999
REV_AT_EPOCH   = 14237
BSTAR          = .69697828E-4
MEAN_MOTION_DOT = .184E-5
MEAN_MOTION_DDOT = 0

CCSDS_OMM_VERS = 2.0
CREATION_DATE  = 
ORIGINATOR     = 

OBJECT_NAME    = SL-12 R/B(2)
OBJECT_ID      = 1985-042D
CENTER_NAME    = EARTH
REF_FRAME      = TEME
TIME_SYSTEM    = UTC
MEAN_ELEMENT_THEORY = SGP/SGP4

EPOCH          = 2025-12-18T12:52:21.641376
MEAN_MOTION    = 14.21953705
ECCENTRICITY   = .00374698
INCLINATION    = 71.1079
RA_OF_ASC_NODE = 259.1743
ARG_OF_PERICENTER = 253.0267
MEAN_ANOMALY   = 280.5127

EPHEMERIS_TYPE = 0
CLASSIFICATION_TYPE = U
NORAD_CAT_ID   = 15772
ELEMENT_SET_NO = 999
REV_AT_EPOCH   = 10285
BSTAR          = .80661915E-4
MEAN_MOTION_DOT = .132E-5
MEAN_MOTION_DDOT = 0

CCSDS_OMM_VERS = 2.0
CREATION_DATE  = 
ORIGINATOR     = 

OBJECT_NAME    = SL-14 R/B
OBJECT_ID      = 1985-069B
CENTER_NAME    = EARTH
REF_FRAME      = TEME
TIME_SYSTEM    = UTC
MEAN_ELEMENT_THEORY = SGP/SGP4

EPOCH          = 2025-12-18T13:24:10.813536
MEAN_MOTION    = 14.86331151
ECCENTRICITY   = .00203398
INCLINATION    = 82.5272
RA_OF_ASC_NODE = 101.2329
ARG_OF_PERICENTER = 100.6023
MEAN_ANOMALY   = 259.7486

EPHEMERIS_TYPE = 0
CLASSIFICATION_TYPE = U
NORAD_CAT_ID   = 15945
ELEMENT_SET_NO = 999
REV_AT_EPOCH   = 16078
BSTAR          = .46661885E-4
MEAN_MOTION_DOT = .437E-5
MEAN_MOTION_DDOT = 0

CCSDS_OMM_VERS = 2.0
CREATION_DATE  = 
ORIGINATOR     = 

OBJECT_NAME    = SL-16 R/B
OBJECT_ID      = 1985-097B
CENTER_NAME    = EARTH
REF_FRAME      = TEME
TIME_SYSTEM    = UTC
MEAN_ELEMENT_THEORY = SGP/SGP4

EPOCH          = 2025-12-18T08:49:50.945664
MEAN_MOTION    = 14.16587297
ECCENTRICITY   = .00070568
INCLINATION    = 71.0037
RA_OF_ASC_NODE = 311.7538
ARG_OF_PERICENTER = 1.6822
MEAN_ANOMALY   = 110.3511

EPHEMERIS_TYPE = 0
CLASSIFICATION_TYPE = U
NORAD_CAT_ID   = 16182
ELEMENT_SET_NO = 999
REV_AT_EPOCH   = 7571
BSTAR          = .91200993E-4
MEAN_MOTION_DOT = .134E-5
MEAN_MOTION_DDOT = 0

CCSDS_OMM_VERS = 2.0
CREATION_DATE  = 
ORIGINATOR     = 

OBJECT_NAME    = SL-14 R/B
OBJECT_ID      = 1986-006B
CENTER_NAME    = EARTH
REF_FRAME      = TEME
TIME_SYSTEM    = UTC
MEAN_ELEMENT_THEORY = SGP/SGP4

EPOCH          = 2025-12-18T08:29:17.755008
MEAN_MOTION    = 14.86678985
ECCENTRICITY   = .00766552
INCLINATION    = 82.5267
RA_OF_ASC_NODE = 336.2684
ARG_OF_PERICENTER = 181.1163
MEAN_ANOMALY   = 178.9896

EPHEMERIS_TYPE = 0
CLASSIFICATION_TYPE = U
NORAD_CAT_ID   = 16496
ELEMENT_SET_NO = 999
REV_AT_EPOCH   = 13712
BSTAR          = .52011449E-4
MEAN_MOTION_DOT = .514E-5
MEAN_MOTION_DDOT = 0

CCSDS_OMM_VERS = 2.0
CREATION_DATE  = 
ORIGINATOR     = 

OBJECT_NAME    = COSMOS 1743
OBJECT_ID      = 1986-034A
CENTER_NAME    = EARTH
REF_FRAME      = TEME
TIME_SYSTEM    = UTC
MEAN_ELEMENT_THEORY = SGP/SGP4

EPOCH          = 2025-12-18T12:29:30.743808
MEAN_MOTION    = 15.52469014
ECCENTRICITY   = .00047977
INCLINATION    = 82.5338
RA_OF_ASC_NODE = 158.5857
ARG_OF_PERICENTER = 228.0607
MEAN_ANOMALY   = 132.0237

EPHEMERIS_TYPE = 0
CLASSIFICATION_TYPE = U
NORAD_CAT_ID   = 16719
ELEMENT_SET_NO = 999
REV_AT_EPOCH   = 16763
BSTAR          = .41450785E-3
MEAN_MOTION_DOT = .25439E-3
MEAN_MOTION_DDOT = 0

