SL-3 R/B                
1 13403U 82079B   25352.59152733  .00004882  00000+0  20052-3 0  9992
2 13403  81.1474 288.7622 0027119  80.2793 280.1501 15.23653159365340
SL-14 R/B               
1 13553U 82092B   25352.59664198  .00000375  00000+0  39488-4 0  9993
2 13553  82.5677 217.2345 0019588 206.5965 175.6082 14.86561118316888
SL-3 R/B                
1 13819U 83010B   25352.41195914  .00013212  00000+0  29147-3 0  9999
2 13819  81.1049 101.6949 0016858 331.1195  28.9113 15.43608862345399
SL-3 R/B                
1 14208U 83075B   25352.58456557  .00008198  00000+0  23239-3 0  9997
2 14208  97.6097 349.2648 0023378 154.9698 205.2685 15.36249795317691
COSMOS 1536             
1 14699U 84013A   25352.58981153  .00004836  00000+0  20636-3 0  9992
2 14699  82.5442 188.3621 0013918 203.6201 156.4399 15.22582072260279
SL-14 R/B               
1 14820U 84027B   25352.41427762  .00000435  00000+0  47083-4 0  9993
2 14820  82.5415 321.2342 0016511 240.2503 119.7071 14.85880487235569
SL-8 R/B                
1 15483U 85006B   25352.60541383  .00000184  00000+0  69698-4 0  9991
2 15483  74.0465  50.3433 0018927 341.2695 127.1107 14.37724364142371
SL-12 R/B(2)            
1 15772U 85042D   25352.53636159  .00000132  00000+0  80662-4 0  9997
2 15772  71.1079 259.1743 0037469 253.0267 280.5127 14.21953705102852
SL-14 R/B               
1 15945U 85069B   25352.55845849  .00000437  00000+0  46662-4 0  9998
2 15945  82.5272 101.2329 0020339 100.6023 259.7486 14.86331151160785
SL-16 R/B               
1 16182U 85097B   25352.36795076  .00000134  00000+0  91201-4 0  9991
2 16182  71.0037 311.7538 0007056   1.6822 110.3511 14.16587297 75715
SL-14 R/B               
1 16496U 86006B   25352.35367772  .00000514  00000+0  52011-4 0  9995
2 16496  82.5267 336.2684 0076655 181.1163 178.9896 14.86678985137124
COSMOS 1743             
1 16719U 86034A   25352.52049472  .00025439  00000+0  41451-3 0  9995
2 16719  82.5338 158.5857 0004797 228.0607 132.0237 15.52469014167634
